H1 CPF 01  gfz 2022 01 15 13  5152 tandemx   
H2 1003001  6202 36605    2022 01 15 12 59 42 2022 01 20 00 00 42   120 1 1  0 0 0
H9
10 0 59594  79902.000000  0    -656899.636   3015559.461  -6165396.072
10 0 59594  80022.000000  0    -208575.587   2287410.722  -6501031.272
10 0 59594  80142.000000  0     230207.124   1511864.527  -6723215.181
10 0 59594  80262.000000  0     651137.252    702611.304  -6828123.934
10 0 59594  80382.000000  0    1046462.708   -125949.519  -6813954.437
10 0 59594  80502.000000  0    1409129.697   -958961.172  -6680951.391
10 0 59594  80622.000000  0    1732904.991  -1781369.219  -6431402.123
10 0 59594  80742.000000  0    2012481.199  -2578186.231  -6069601.950
10 0 59594  80862.000000  0    2243563.497  -3334759.397  -5601789.376
10 0 59594  80982.000000  0    2422936.688  -4037039.724  -5036050.140
10 0 59594  81102.000000  0    2548510.503  -4671844.576  -4382186.577
10 0 59594  81222.000000  0    2619342.210  -5227107.725  -3651558.338
10 0 59594  81342.000000  0    2635636.153  -5692116.238  -2856895.108
10 0 59594  81462.000000  0    2598720.143  -6057726.865  -2012080.711
10 0 59594  81582.000000  0    2510999.011  -6316556.802  -1131913.300
10 0 59594  81702.000000  0    2375884.851  -6463143.205   -231843.432
10 0 59594  81822.000000  0    2197704.894  -6494064.157    672303.421
10 0 59594  81942.000000  0    1981590.728  -6408020.841   1564611.812
10 0 59594  82062.000000  0    1733351.070  -6205877.430   2429366.763
10 0 59594  82182.000000  0    1459329.751  -5890655.043   3251339.555
10 0 59594  82302.000000  0    1166254.980  -5467483.102   4016062.509
10 0 59594  82422.000000  0     861082.575  -4943508.830   4710087.493
10 0 59594  82542.000000  0     550837.467  -4327769.000   5321224.334
10 0 59594  82662.000000  0     242456.513  -3631024.187   5838754.711
10 0 59594  82782.000000  0     -57361.855  -2865560.198   6253616.053
10 0 59594  82902.000000  0    -342299.358  -2044963.846   6558553.059
10 0 59594  83022.000000  0    -606547.678  -1183878.311   6748237.864
10 0 59594  83142.000000  0    -844924.417   -297740.122   6819358.645
10 0 59594  83262.000000  0   -1052973.380    597498.707   6770674.435
10 0 59594  83382.000000  0   -1227047.351   1485657.705   6603035.090
10 0 59594  83502.000000  0   -1364371.671   2350619.558   6319367.173
10 0 59594  83622.000000  0   -1463088.561   3176622.323   5924626.198
10 0 59594  83742.000000  0   -1522281.432   3948547.939   5425714.862
10 0 59594  83862.000000  0   -1541977.826   4652202.102   4831368.807
10 0 59594  83982.000000  0   -1523132.374   5274581.988   4152009.831
10 0 59594  84102.000000  0   -1467588.558   5804124.656   3399566.865
10 0 59594  84222.000000  0   -1378021.509   6230930.702   2587269.012
10 0 59594  84342.000000  0   -1257862.962   6546959.748   1729411.960
10 0 59594  84462.000000  0   -1111206.691   6746190.729    841101.723
10 0 59594  84582.000000  0    -942699.614   6824742.188    -62017.524
10 0 59594  84702.000000  0    -757420.817   6780952.134   -964046.735
10 0 59594  84822.000000  0    -560750.872   6615412.050  -1849123.013
10 0 59594  84942.000000  0    -358236.018   6330952.144  -2701707.505
10 0 59594  85062.000000  0    -155451.229   5932582.898  -3506862.537
10 0 59594  85182.000000  0      42135.385   5427395.919  -4250514.923
10 0 59594  85302.000000  0     229293.848   4824425.675  -4919700.811
10 0 59594  85422.000000  0     401155.905   4134476.001  -5502786.821
10 0 59594  85542.000000  0     553328.151   3369916.062  -5989664.664
10 0 59594  85662.000000  0     681991.728   2544450.157  -6371916.185
10 0 59594  85782.000000  0     783987.310   1672867.748  -6642947.152
10 0 59594  85902.000000  0     856884.205    770778.823  -6798090.167
10 0 59594  86022.000000  0     899031.996   -145662.467  -6834676.891
10 0 59594  86142.000000  0     909594.587  -1060041.978  -6752078.793
10 0 59594  86262.000000  0     888565.646  -1955972.387  -6551714.990
10 0 59594  86382.000000  0     836766.204  -2817378.059  -6237030.589
10 0 59595    102.000000  0     755824.135  -3628778.464  -5813446.532
10 0 59595    222.000000  0     648134.477  -4375565.534  -5288275.133
10 0 59595    342.000000  0     516803.252  -5044267.283  -4670604.343
10 0 59595    462.000000  0     365574.103  -5622796.140  -3971152.347
10 0 59595    582.000000  0     198739.047  -6100676.690  -3202091.174
10 0 59595    702.000000  0      21035.259  -6469246.294  -2376842.006
10 0 59595    822.000000  0    -162469.959  -6721825.517  -1509845.228
10 0 59595    942.000000  0    -346503.796  -6853852.215   -616306.792
10 0 59595   1062.000000  0    -525718.982  -6862974.243    288072.764
10 0 59595   1182.000000  0    -694828.059  -6749098.799   1187380.460
10 0 59595   1302.000000  0    -848737.642  -6514397.561   2065779.217
10 0 59595   1422.000000  0    -982679.009  -6163265.428   2907796.424
10 0 59595   1542.000000  0   -1092330.744  -5702233.843   3698605.646
10 0 59595   1662.000000  0   -1173930.621  -5139840.429   4424293.472
10 0 59595   1782.000000  0   -1224375.325  -4486461.289   5072106.027
10 0 59595   1902.000000  0   -1241304.108  -3754110.796   5630673.389
10 0 59595   2022.000000  0   -1223165.739  -2956210.454   6090207.761
10 0 59595   2142.000000  0   -1169265.855  -2107333.506   6442668.752
10 0 59595   2262.000000  0   -1079794.640  -1222934.526   6681896.642
10 0 59595   2382.000000  0    -955835.747   -319065.748   6803714.971
10 0 59595   2502.000000  0    -799355.949    587915.401   6805998.658
10 0 59595   2622.000000  0    -613174.055   1481641.723   6688709.061
10 0 59595   2742.000000  0    -400909.835   2346031.200   6453894.589
10 0 59595   2862.000000  0    -166914.276   3165576.045   6105656.948
10 0 59595   2982.000000  0      83817.302   3925621.840   5650084.023
10 0 59595   3102.000000  0     345748.022   4612632.854   5095148.863
10 0 59595   3222.000000  0     612917.396   5214438.758   4450576.814
10 0 59595   3342.000000  0     879071.283   5720458.438   3727678.762
10 0 59595   3462.000000  0    1137800.154   6121892.814   2939157.754
10 0 59595   3582.000000  0    1382687.781   6411893.168   2098887.820
10 0 59595   3702.000000  0    1607460.642   6585685.160   1221663.072
10 0 59595   3822.000000  0    1806137.108   6640653.432    322931.564
10 0 59595   3942.000000  0    1973172.362   6576381.830   -581484.745
10 0 59595   4062.000000  0    2103594.665   6394649.955  -1475676.465
10 0 59595   4182.000000  0    2193130.360   6099386.461  -2343934.112
10 0 59595   4302.000000  0    2238314.416   5696580.085  -3171030.726
10 0 59595   4422.000000  0    2236583.680   5194150.216  -3942493.782
10 0 59595   4542.000000  0    2186350.333   4601780.000  -4644859.550
10 0 59595   4662.000000  0    2087053.784   3930718.434  -5265904.360
10 0 59595   4782.000000  0    1939191.143   3193557.441  -5794849.897
10 0 59595   4902.000000  0    1744325.628   2403988.663  -6222541.142
10 0 59595   5022.000000  0    1505072.691   1576544.866  -6541593.296
10 0 59595   5142.000000  0    1225065.932    726332.880  -6746507.824
10 0 59595   5262.000000  0     908902.093   -131239.212  -6833758.434
10 0 59595   5382.000000  0     562065.616   -980736.570  -6801844.832
10 0 59595   5502.000000  0     190835.060  -1806968.723  -6651314.094
10 0 59595   5622.000000  0    -197826.931  -2595252.962  -6384752.390
10 0 59595   5742.000000  0    -596400.588  -3331670.570  -6006747.447
10 0 59595   5862.000000  0    -996950.189  -4003310.525  -5523817.054
10 0 59595   5982.000000  0   -1391276.975  -4598496.146  -4944307.837
10 0 59595   6102.000000  0   -1771082.746  -5106993.223  -4278262.944
10 0 59595   6222.000000  0   -2128141.056  -5520194.085  -3537258.301
10 0 59595   6342.000000  0   -2454472.113  -5831273.105  -2734209.646
10 0 59595   6462.000000  0   -2742517.642  -6035310.460  -1883153.116
10 0 59595   6582.000000  0   -2985312.007  -6129381.272   -999001.785
10 0 59595   6702.000000  0   -3176645.169  -6112606.184    -97281.384
10 0 59595   6822.000000  0   -3311212.316  -5986160.243    806148.755
10 0 59595   6942.000000  0   -3384746.484  -5753240.451   1695382.814
10 0 59595   7062.000000  0   -3394130.683  -5418992.023   2554758.039
10 0 59595   7182.000000  0   -3337486.200  -4990394.991   3369139.077
10 0 59595   7302.000000  0   -3214235.109  -4476115.331   4124191.221
10 0 59595   7422.000000  0   -3025135.705  -3886323.909   4806637.192
10 0 59595   7542.000000  0   -2772290.469  -3232487.623   5404491.746
10 0 59595   7662.000000  0   -2459125.843  -2527139.045   5907270.279
10 0 59595   7782.000000  0   -2090344.999  -1783630.713   6306168.193
10 0 59595   7902.000000  0   -1671854.994  -1015878.626   6594210.933
10 0 59595   8022.000000  0   -1210668.588   -238097.501   6766369.960
10 0 59595   8142.000000  0    -714785.508    535462.825   6819642.474
10 0 59595   8262.000000  0    -193054.114   1290777.018   6753101.135
10 0 59595   8382.000000  0     344986.386   2014298.270   6567909.586
10 0 59595   8502.000000  0     889280.138   2693201.198   6267303.003
10 0 59595   8622.000000  0    1429441.677   3315609.010   5856534.778
10 0 59595   8742.000000  0    1954953.013   3870803.604   5342790.519
10 0 59595   8862.000000  0    2455368.411   4349414.810   4735068.800
10 0 59595   8982.000000  0    2920523.645   4743584.462   4044028.449
10 0 59595   9102.000000  0    3340742.970   5047100.633   3281805.632
10 0 59595   9222.000000  0    3707042.698   5255503.693   2461804.866
10 0 59595   9342.000000  0    4011326.720   5366157.480   1598459.004
10 0 59595   9462.000000  0    4246563.379   5378280.931    706971.034
10 0 59595   9582.000000  0    4406944.782   5292946.329   -196960.961
10 0 59595   9702.000000  0    4488021.335   5113035.685  -1097429.700
10 0 59595   9822.000000  0    4486810.230   4843161.664  -1978606.056
10 0 59595   9942.000000  0    4401873.864   4489554.811  -2825024.563
99
